[{"OBJECT_NAME":"STARLINK-35162","OBJECT_ID":"2025-207X","EPOCH":"2026-03-09T18:12:30.791808","MEAN_MOTION":15.05656295,"ECCENTRICITY":6.095e-5,"INCLINATION":97.6012,"RA_OF_ASC_NODE":138.7609,"ARG_OF_PERICENTER":68.3551,"MEAN_ANOMALY":291.774,"EPHEMERIS_TYPE":0,"CLASSIFICATION_TYPE":"U","NORAD_CAT_ID":65613,"ELEMENT_SET_NO":999,"REV_AT_EPOCH":2827,"BSTAR":1.0832951e-5,"MEAN_MOTION_DOT":9.6e-7,"MEAN_MOTION_DDOT":0},{"OBJECT_NAME":"MINOTAUR 4 DEB","OBJECT_ID":"2020-046AB","EPOCH":"2026-03-09T21:53:22.840224","MEAN_MOTION":15.04149387,"ECCENTRICITY":0.00103054,"INCLINATION":53.9803,"RA_OF_ASC_NODE":316.6393,"ARG_OF_PERICENTER":80.1776,"MEAN_ANOMALY":280.0387,"EPHEMERIS_TYPE":0,"CLASSIFICATION_TYPE":"U","NORAD_CAT_ID":52037,"ELEMENT_SET_NO":999,"REV_AT_EPOCH":22693,"BSTAR":0.00012711185,"MEAN_MOTION_DOT":1.507e-5,"MEAN_MOTION_DDOT":0}]
